ONEWEB-0674             
1 55833U 23029AP  24130.39095996  .00000265  00000+0  67935-3 0  9995
2 55833  87.8946  82.6988 0001363  84.2985 275.8300 13.14503419 59097
ONEWEB-0675             
1 55834U 23029AQ  24129.89424843  .00000038  00000+0  61408-4 0  9994
2 55834  87.9128  98.0780 0002486  84.3632 275.7784 13.19727180 57450
ONEWEB-0720             
1 55835U 23029AR  24129.88634341  .00000143  00000+0  32502-3 0  9999
2 55835  87.9126  98.0806 0002104 101.1548 258.9821 13.19724826 57379
ONEWEB-0537             
1 56046U 23043A   24130.40934242 -.00000739  00000+0 -19675-2 0  9991
2 56046  87.9141  21.7958 0002036  74.4835 285.6520 13.16596612 58716
ONEWEB-0538             
1 56047U 23043B   24130.40301005 -.00000168  00000+0 -47275-3 0  9991
2 56047  87.9143  21.8162 0002069  85.5598 274.5769 13.16594329 58728
ONEWEB-0546             
1 56048U 23043C   24130.39034778  .00000086  00000+0  19233-3 0  9990
2 56048  87.9144  21.7820 0002369  60.6181 299.5186 13.16592844 58714
ONEWEB-0547             
1 56049U 23043D   24129.79466152  .00000075  00000+0  15006-3 0  9990
2 56049  87.9320  37.1262 0002353  85.0856 275.0547 13.21825039 56589
ONEWEB-0548             
1 56050U 23043E   24129.95969826 -.00000012  00000+0 -65836-4 0  9996
2 56050  87.9142  21.9112 0001193  75.2292 284.8971 13.16596459 57747
